FENGYUN 2D              
1 29640U 06053A   17345.87013001 -.00000368  00000-0  10000-3 0  9997
2 29640   4.7748  63.5044 0007731 314.7228 139.4893  1.00265705 40388
